[
    {
        "Altitude(m)": 706872.2356233484,
        "Argument of Periapsis(deg)": 0.006834072711976239,
        "Eccentricity": 0.0,
        "Inclination(deg)": 45.0,
        "Latitude(deg)": 43.202086748192606,
        "Longitude(deg)": -124.53325422704802,
        "Mean Anomaly(deg)": 105.1017299884885,
        "RAAN(deg)": 224.99354883512507,
        "Satellite Name": "Constellation 1 996",
        "Satellite Number": 996,
        "Semi-Major Axis(m)": 7083131.272910544,
        "Time(s)": 114
    },
    {
        "Altitude(m)": 706868.812748601,
        "Argument of Periapsis(deg)": 0.006894020718221645,
        "Eccentricity": 0.0,
        "Inclination(deg)": 45.0,
        "Latitude(deg)": 43.186696550454066,
        "Longitude(deg)": -124.45697165154304,
        "Mean Anomaly(deg)": 105.1624311287384,
        "RAAN(deg)": 224.99349224595952,
        "Satellite Name": "Constellation 1 996",
        "Satellite Number": 996,
        "Semi-Major Axis(m)": 7083131.272910544,
        "Time(s)": 115
    },
    {
        "Altitude(m)": 706865.3778348789,
        "Argument of Periapsis(deg)": 0.006953968724467052,
        "Eccentricity": 0.0,
        "Inclination(deg)": 45.0,
        "Latitude(deg)": 43.171249874082484,
        "Longitude(deg)": -124.38072950388947,
        "Mean Anomaly(deg)": 105.2231322689883,
        "RAAN(deg)": 224.9934356567939,
        "Satellite Name": "Constellation 1 996",
        "Satellite Number": 996,
        "Semi-Major Axis(m)": 7083131.272910544,
        "Time(s)": 116
    },
    {
        "Altitude(m)": 706861.9309025538,
        "Argument of Periapsis(deg)": 0.007013916730712457,
        "Eccentricity": 0.0,
        "Inclination(deg)": 45.0,
        "Latitude(deg)": 43.15574677742694,
        "Longitude(deg)": -124.30452788967935,
        "Mean Anomaly(deg)": 105.28383340923814,
        "RAAN(deg)": 224.99337906762835,
        "Satellite Name": "Constellation 1 996",
        "Satellite Number": 996,
        "Semi-Major Axis(m)": 7083131.272910544,
        "Time(s)": 117
    },
    {
        "Altitude(m)": 706858.4719720741,
        "Argument of Periapsis(deg)": 0.007073864736957864,
        "Eccentricity": 0.0,
        "Inclination(deg)": 45.0,
        "Latitude(deg)": 43.14018731897419,
        "Longitude(deg)": -124.22836691394181,
        "Mean Anomaly(deg)": 105.34453454948812,
        "RAAN(deg)": 224.9933224784628,
        "Satellite Name": "Constellation 1 996",
        "Satellite Number": 996,
        "Semi-Major Axis(m)": 7083131.272910544,
        "Time(s)": 118
    },
    {
        "Altitude(m)": 706855.0010639451,
        "Argument of Periapsis(deg)": 0.0071338127432032696,
        "Eccentricity": 0.0,
        "Inclination(deg)": 45.0,
        "Latitude(deg)": 43.12457155734817,
        "Longitude(deg)": -124.15224684924029,
        "Mean Anomaly(deg)": 105.40523568973799,
        "RAAN(deg)": 224.99326588929722,
        "Satellite Name": "Constellation 1 996",
        "Satellite Number": 996,
        "Semi-Major Axis(m)": 7083131.272910544,
        "Time(s)": 119
    },
    {
        "Altitude(m)": 706851.5181987588,
        "Argument of Periapsis(deg)": 0.007193760749448674,
        "Eccentricity": 0.0,
        "Inclination(deg)": 45.0,
        "Latitude(deg)": 43.108899551308106,
        "Longitude(deg)": -124.07616746328408,
        "Mean Anomaly(deg)": 105.46593682998788,
        "RAAN(deg)": 224.99320930013167,
        "Satellite Name": "Constellation 1 996",
        "Satellite Number": 996,
        "Semi-Major Axis(m)": 7083131.272910544,
        "Time(s)": 120
    },
    {
        "Altitude(m)": 706848.0233971729,
        "Argument of Periapsis(deg)": 0.007253708755694079,
        "Eccentricity": 0.0,
        "Inclination(deg)": 45.0,
        "Latitude(deg)": 43.093171359748915,
        "Longitude(deg)": -124.0001290275096,
        "Mean Anomaly(deg)": 105.52663797023781,
        "RAAN(deg)": 224.99315271096611,
        "Satellite Name": "Constellation 1 996",
        "Satellite Number": 996,
        "Semi-Major Axis(m)": 7083131.272910544,
        "Time(s)": 121
    },
    {
        "Altitude(m)": 706844.5166799254,
        "Argument of Periapsis(deg)": 0.0073136567619394854,
        "Eccentricity": 0.0,
        "Inclination(deg)": 45.0,
        "Latitude(deg)": 43.07738704169943,
        "Longitude(deg)": -123.9241316446928,
        "Mean Anomaly(deg)": 105.58733911048766,
        "RAAN(deg)": 224.9930961218005,
        "Satellite Name": "Constellation 1 996",
        "Satellite Number": 996,
        "Semi-Major Axis(m)": 7083131.272910544,
        "Time(s)": 122
    },
    {
        "Altitude(m)": 706840.9980678225,
        "Argument of Periapsis(deg)": 0.0073736047681848904,
        "Eccentricity": 0.0,
        "Inclination(deg)": 45.0,
        "Latitude(deg)": 43.06154665632166,
        "Longitude(deg)": -123.84817541704545,
        "Mean Anomaly(deg)": 105.64804025073755,
        "RAAN(deg)": 224.99303953263495,
        "Satellite Name": "Constellation 1 996",
        "Satellite Number": 996,
        "Semi-Major Axis(m)": 7083131.272910544,
        "Time(s)": 123
    },
    {
        "Altitude(m)": 706837.4675817394,
        "Argument of Periapsis(deg)": 0.007433552774430298,
        "Eccentricity": 0.0,
        "Inclination(deg)": 45.0,
        "Latitude(deg)": 43.0456502629099,
        "Longitude(deg)": -123.77226044621507,
        "Mean Anomaly(deg)": 105.70874139098747,
        "RAAN(deg)": 224.99298294346937,
        "Satellite Name": "Constellation 1 996",
        "Satellite Number": 996,
        "Semi-Major Axis(m)": 7083131.272910544,
        "Time(s)": 124
    },
    {
        "Altitude(m)": 706833.9252426316,
        "Argument of Periapsis(deg)": 0.007493500780675703,
        "Eccentricity": 0.0,
        "Inclination(deg)": 45.0,
        "Latitude(deg)": 43.02969792088988,
        "Longitude(deg)": -123.69638683328496,
        "Mean Anomaly(deg)": 105.7694425312374,
        "RAAN(deg)": 224.99292635430382,
        "Satellite Name": "Constellation 1 996",
        "Satellite Number": 996,
        "Semi-Major Axis(m)": 7083131.272910544,
        "Time(s)": 125
    },
    {
        "Altitude(m)": 706830.3710715233,
        "Argument of Periapsis(deg)": 0.007553448786921108,
        "Eccentricity": 0.0,
        "Inclination(deg)": 45.0,
        "Latitude(deg)": 43.013689689817895,
        "Longitude(deg)": -123.62055484687058,
        "Mean Anomaly(deg)": 105.83014367148729,
        "RAAN(deg)": 224.99286976513827,
        "Satellite Name": "Constellation 1 996",
        "Satellite Number": 996,
        "Semi-Major Axis(m)": 7083131.272910544,
        "Time(s)": 126
    },
    {
        "Altitude(m)": 706826.8050895078,
        "Argument of Periapsis(deg)": 0.007613396793166514,
        "Eccentricity": 0.0,
        "Inclination(deg)": 45.0,
        "Latitude(deg)": 42.9976256293793,
        "Longitude(deg)": -123.5447642507321,
        "Mean Anomaly(deg)": 105.89084481173715,
        "RAAN(deg)": 224.99281317597266,
        "Satellite Name": "Constellation 1 996",
        "Satellite Number": 996,
        "Semi-Major Axis(m)": 7083131.272910544,
        "Time(s)": 127
    },
    {
        "Altitude(m)": 706823.2273177613,
        "Argument of Periapsis(deg)": 0.007673344799411918,
        "Eccentricity": 0.0,
        "Inclination(deg)": 45.0,
        "Latitude(deg)": 42.981505799388565,
        "Longitude(deg)": -123.46901531235508,
        "Mean Anomaly(deg)": 105.9515459519871,
        "RAAN(deg)": 224.9927565868071,
        "Satellite Name": "Constellation 1 996",
        "Satellite Number": 996,
        "Semi-Major Axis(m)": 7083131.272910544,
        "Time(s)": 128
    },
    {
        "Altitude(m)": 706819.6377775222,
        "Argument of Periapsis(deg)": 0.007733292805657325,
        "Eccentricity": 0.0,
        "Inclination(deg)": 45.0,
        "Latitude(deg)": 42.96533025978773,
        "Longitude(deg)": -123.39330813056367,
        "Mean Anomaly(deg)": 106.01224709223698,
        "RAAN(deg)": 224.99269999764155,
        "Satellite Name": "Constellation 1 996",
        "Satellite Number": 996,
        "Semi-Major Axis(m)": 7083131.272910544,
        "Time(s)": 129
    },
    {
        "Altitude(m)": 706816.0364901018,
        "Argument of Periapsis(deg)": 0.00779324081190273,
        "Eccentricity": 0.0,
        "Inclination(deg)": 45.0,
        "Latitude(deg)": 42.949099070645644,
        "Longitude(deg)": -123.31764280361618,
        "Mean Anomaly(deg)": 106.07294823248688,
        "RAAN(deg)": 224.99264340847597,
        "Satellite Name": "Constellation 1 996",
        "Satellite Number": 996,
        "Semi-Major Axis(m)": 7083131.272910544,
        "Time(s)": 130
    },
    {
        "Altitude(m)": 706812.4234768874,
        "Argument of Periapsis(deg)": 0.007853188818148135,
        "Eccentricity": 0.0,
        "Inclination(deg)": 45.0,
        "Latitude(deg)": 42.932812292157,
        "Longitude(deg)": -123.24201942920614,
        "Mean Anomaly(deg)": 106.13364937273678,
        "RAAN(deg)": 224.99258681931042,
        "Satellite Name": "Constellation 1 996",
        "Satellite Number": 996,
        "Semi-Major Axis(m)": 7083131.272910544,
        "Time(s)": 131
    },
    {
        "Altitude(m)": 706808.7987593412,
        "Argument of Periapsis(deg)": 0.007913136824393542,
        "Eccentricity": 0.0,
        "Inclination(deg)": 45.0,
        "Latitude(deg)": 42.91646998464148,
        "Longitude(deg)": -123.16643810446149,
        "Mean Anomaly(deg)": 106.19435051298669,
        "RAAN(deg)": 224.9925302301448,
        "Satellite Name": "Constellation 1 996",
        "Satellite Number": 996,
        "Semi-Major Axis(m)": 7083131.272910544,
        "Time(s)": 132
    }
]